EUTELSAT 8 WEST B       
1 40875U 15039B   25364.89270398 -.00000048  00000+0  00000+0 0  9999
2 40875   0.0650 346.6180 0004143 292.7074 133.6180  1.00271342 37965
EUTELSAT 9B             
1 41310U 16005A   25364.89608400  .00000079  00000+0  00000+0 0  9990
2 41310   0.0398  60.6322 0004959 217.5695 152.9396  1.00270912 36424
EUTELSAT 65 WEST A      
1 41382U 16014A   25364.88135059 -.00000258  00000+0  00000+0 0  9993
2 41382   0.0764 308.7711 0002622 333.9885  68.8828  1.00268951 35847
EUTELSAT 117 WEST B     
1 41589U 16038B   25364.87095053  .00000006  00000+0  00000+0 0  9996
2 41589   0.0129 150.6636 0000413 263.6431 241.7876  1.00271693 34978
EUTELSAT 172B           
1 42741U 17029B   25364.85708377  .00000012  00000+0  00000+0 0  9993
2 42741   0.0373 149.2002 0000264  77.8192 353.0541  1.00270236 32048
EUTELSAT 7C             
1 44334U 19034B   25364.53889919  .00000067  00000+0  00000+0 0  9998
2 44334   0.0739 179.3203 0003486  84.6906  36.1832  1.00270305  5149
EUTELSAT 5 WEST B       
1 44624U 19067A   25364.89331066 -.00000025  00000+0  00000+0 0  9995
2 44624   0.0798 320.3916 0003438 317.7869 137.9802  1.00270073 22755
EUTELSAT KONNECT        
1 45027U 20005B   25364.61039965  .00000068  00000+0  00000+0 0  9996
2 45027   0.0701  93.8451 0001767 181.3040  51.0780  1.00270091 22641
